0 SL-14 DEB
1 26011U 91068W   13282.79659456  .00000155  00000-0  82755-3 0   724
2 26011 082.4286 017.4385 0057374 250.5056 234.9014 12.60601440643874
0 SL-14 DEB
1 26011U 91068W   13287.30834297  .00000228  00000-0  12387-2 0   740
2 26011 082.4287 014.5107 0057646 240.3504 189.9768 12.60603116644443
0 SL-14 DEB
1 26011U 91068W   13289.70033211  .00000254  00000-0  13867-2 0   757
2 26011 082.4285 012.9585 0057750 234.9745 245.2297 12.60604210644747
0 SL-14 DEB
1 26011U 91068W   13292.71682367  .00000252  00000-0  13758-2 0   762
2 26011 082.4280 011.0008 0057882 228.2037 254.5865 12.60605902645124
0 SL-14 DEB
1 26011U 91068W   13295.15615439  .00000233  00000-0  12661-2 0   771
2 26011 082.4279 009.4175 0058001 222.7767 164.6525 12.60607514645429
